CCSDS_OMM_VERS = 2.0
CREATION_DATE  = 
ORIGINATOR     = 

OBJECT_NAME    = ATLAS CENTAUR R/B
OBJECT_ID      = 1972-065B
CENTER_NAME    = EARTH
REF_FRAME      = TEME
TIME_SYSTEM    = UTC
MEAN_ELEMENT_THEORY = SGP/SGP4

EPOCH          = 2025-12-27T07:46:57.080064
MEAN_MOTION    = 14.77447064
ECCENTRICITY   = .00333045
INCLINATION    = 35.0024
RA_OF_ASC_NODE = 9.7634
ARG_OF_PERICENTER = 122.1024
MEAN_ANOMALY   = 238.2916

EPHEMERIS_TYPE = 0
CLASSIFICATION_TYPE = U
NORAD_CAT_ID   = 6155
ELEMENT_SET_NO = 999
REV_AT_EPOCH   = 83055
BSTAR          = .19587083E-3
MEAN_MOTION_DOT = .1407E-4
MEAN_MOTION_DDOT = 0

CCSDS_OMM_VERS = 2.0
CREATION_DATE  = 
ORIGINATOR     = 

OBJECT_NAME    = SL-8 R/B
OBJECT_ID      = 1975-112B
CENTER_NAME    = EARTH
REF_FRAME      = TEME
TIME_SYSTEM    = UTC
MEAN_ELEMENT_THEORY = SGP/SGP4

EPOCH          = 2025-12-27T03:50:50.341632
MEAN_MOTION    = 14.38155136
ECCENTRICITY   = .00167013
INCLINATION    = 74.0597
RA_OF_ASC_NODE = 152.3330
ARG_OF_PERICENTER = 262.2649
MEAN_ANOMALY   = 97.6608

EPHEMERIS_TYPE = 0
CLASSIFICATION_TYPE = U
NORAD_CAT_ID   = 8459
ELEMENT_SET_NO = 999
REV_AT_EPOCH   = 62144
BSTAR          = .12611345E-3
MEAN_MOTION_DOT = .357E-5
MEAN_MOTION_DDOT = 0

CCSDS_OMM_VERS = 2.0
CREATION_DATE  = 
ORIGINATOR     = 

OBJECT_NAME    = SL-3 R/B
OBJECT_ID      = 1977-057B
CENTER_NAME    = EARTH
REF_FRAME      = TEME
TIME_SYSTEM    = UTC
MEAN_ELEMENT_THEORY = SGP/SGP4

EPOCH          = 2025-12-27T05:12:05.187744
MEAN_MOTION    = 15.43298831
ECCENTRICITY   = .00074578
INCLINATION    = 97.5693
RA_OF_ASC_NODE = 165.1124
ARG_OF_PERICENTER = 175.6840
MEAN_ANOMALY   = 184.4473

EPHEMERIS_TYPE = 0
CLASSIFICATION_TYPE = U
NORAD_CAT_ID   = 10114
ELEMENT_SET_NO = 999
REV_AT_EPOCH   = 65714
BSTAR          = .30730664E-3
MEAN_MOTION_DOT = .13608E-3
MEAN_MOTION_DDOT = 0

CCSDS_OMM_VERS = 2.0
CREATION_DATE  = 
ORIGINATOR     = 

OBJECT_NAME    = SEASAT 1
OBJECT_ID      = 1978-064A
CENTER_NAME    = EARTH
REF_FRAME      = TEME
TIME_SYSTEM    = UTC
MEAN_ELEMENT_THEORY = SGP/SGP4

EPOCH          = 2025-12-27T05:01:29.296704
MEAN_MOTION    = 14.46077021
ECCENTRICITY   = .00012874
INCLINATION    = 108.0141
RA_OF_ASC_NODE = 333.3925
ARG_OF_PERICENTER = 257.1519
MEAN_ANOMALY   = 102.9483

EPHEMERIS_TYPE = 0
CLASSIFICATION_TYPE = U
NORAD_CAT_ID   = 10967
ELEMENT_SET_NO = 999
REV_AT_EPOCH   = 49603
BSTAR          = .16842897E-3
MEAN_MOTION_DOT = .464E-5
MEAN_MOTION_DDOT = 0

CCSDS_OMM_VERS = 2.0
CREATION_DATE  = 
ORIGINATOR     = 

OBJECT_NAME    = SL-14 R/B
OBJECT_ID      = 1979-011B
CENTER_NAME    = EARTH
REF_FRAME      = TEME
TIME_SYSTEM    = UTC
MEAN_ELEMENT_THEORY = SGP/SGP4

EPOCH          = 2025-12-27T05:01:24.846240
MEAN_MOTION    = 14.91787925
ECCENTRICITY   = .00147987
INCLINATION    = 82.5236
RA_OF_ASC_NODE = 165.3207
ARG_OF_PERICENTER = 302.7550
MEAN_ANOMALY   = 57.2243

EPHEMERIS_TYPE = 0
CLASSIFICATION_TYPE = U
NORAD_CAT_ID   = 11267
ELEMENT_SET_NO = 999
REV_AT_EPOCH   = 51797
BSTAR          = .73610545E-4
MEAN_MOTION_DOT = .768E-5
MEAN_MOTION_DDOT = 0

CCSDS_OMM_VERS = 2.0
CREATION_DATE  = 
ORIGINATOR     = 

OBJECT_NAME    = SL-8 R/B
OBJECT_ID      = 1979-089B
CENTER_NAME    = EARTH
REF_FRAME      = TEME
TIME_SYSTEM    = UTC
MEAN_ELEMENT_THEORY = SGP/SGP4

EPOCH          = 2025-12-27T01:20:01.151232
MEAN_MOTION    = 14.42292560
ECCENTRICITY   = .00147732
INCLINATION    = 74.0672
RA_OF_ASC_NODE = 225.4836
ARG_OF_PERICENTER = 53.9638
MEAN_ANOMALY   = 306.2885

EPHEMERIS_TYPE = 0
CLASSIFICATION_TYPE = U
NORAD_CAT_ID   = 11574
ELEMENT_SET_NO = 999
REV_AT_EPOCH   = 42563
BSTAR          = .92126534E-4
MEAN_MOTION_DOT = .278E-5
MEAN_MOTION_DDOT = 0

CCSDS_OMM_VERS = 2.0
CREATION_DATE  = 
ORIGINATOR     = 

OBJECT_NAME    = SL-14 R/B
OBJECT_ID      = 1980-005B
CENTER_NAME    = EARTH
REF_FRAME      = TEME
TIME_SYSTEM    = UTC
MEAN_ELEMENT_THEORY = SGP/SGP4

EPOCH          = 2025-12-27T02:35:03.282432
MEAN_MOTION    = 14.90808655
ECCENTRICITY   = .00169906
INCLINATION    = 82.5138
RA_OF_ASC_NODE = 16.0713
ARG_OF_PERICENTER = 49.6047
MEAN_ANOMALY   = 310.6651

EPHEMERIS_TYPE = 0
CLASSIFICATION_TYPE = U
NORAD_CAT_ID   = 11672
ELEMENT_SET_NO = 999
REV_AT_EPOCH   = 46567
BSTAR          = .69427037E-4
MEAN_MOTION_DOT = .71E-5
MEAN_MOTION_DDOT = 0

CCSDS_OMM_VERS = 2.0
CREATION_DATE  = 
ORIGINATOR     = 

OBJECT_NAME    = SL-8 R/B
OBJECT_ID      = 1981-003B
CENTER_NAME    = EARTH
REF_FRAME      = TEME
TIME_SYSTEM    = UTC
MEAN_ELEMENT_THEORY = SGP/SGP4

EPOCH          = 2025-12-27T06:38:32.811360
MEAN_MOTION    = 15.07490911
ECCENTRICITY   = .02773259
INCLINATION    = 82.9355
RA_OF_ASC_NODE = 356.8267
ARG_OF_PERICENTER = 70.3516
MEAN_ANOMALY   = 292.7413

EPHEMERIS_TYPE = 0
CLASSIFICATION_TYPE = U
NORAD_CAT_ID   = 12139
ELEMENT_SET_NO = 999
REV_AT_EPOCH   = 30375
BSTAR          = .56204166E-3
MEAN_MOTION_DOT = .21249E-3
MEAN_MOTION_DDOT = 0

CCSDS_OMM_VERS = 2.0
CREATION_DATE  = 
ORIGINATOR     = 

OBJECT_NAME    = SL-3 R/B
OBJECT_ID      = 1981-046B
CENTER_NAME    = EARTH
REF_FRAME      = TEME
TIME_SYSTEM    = UTC
MEAN_ELEMENT_THEORY = SGP/SGP4

EPOCH          = 2025-12-27T04:28:17.743872
MEAN_MOTION    = 15.39910123
ECCENTRICITY   = .0018055
INCLINATION    = 81.2325
RA_OF_ASC_NODE = 16.6510
ARG_OF_PERICENTER = 271.3494
MEAN_ANOMALY   = 88.5680

EPHEMERIS_TYPE = 0
CLASSIFICATION_TYPE = U
NORAD_CAT_ID   = 12465
ELEMENT_SET_NO = 999
REV_AT_EPOCH   = 42726
BSTAR          = .31140851E-3
MEAN_MOTION_DOT = .1249E-3
MEAN_MOTION_DDOT = 0

CCSDS_OMM_VERS = 2.0
CREATION_DATE  = 
ORIGINATOR     = 

OBJECT_NAME    = SL-3 R/B
OBJECT_ID      = 1981-103B
CENTER_NAME    = EARTH
REF_FRAME      = TEME
TIME_SYSTEM    = UTC
MEAN_ELEMENT_THEORY = SGP/SGP4

EPOCH          = 2025-12-27T06:30:37.639872
MEAN_MOTION    = 15.20405099
ECCENTRICITY   = .00129395
INCLINATION    = 81.1597
RA_OF_ASC_NODE = 298.3340
ARG_OF_PERICENTER = 162.0022
MEAN_ANOMALY   = 198.1670

EPHEMERIS_TYPE = 0
CLASSIFICATION_TYPE = U
NORAD_CAT_ID   = 12904
ELEMENT_SET_NO = 999
REV_AT_EPOCH   = 96222
BSTAR          = .28938513E-3
MEAN_MOTION_DOT = .6344E-4
MEAN_MOTION_DDOT = 0

CCSDS_OMM_VERS = 2.0
CREATION_DATE  = 
ORIGINATOR     = 

OBJECT_NAME    = SL-3 R/B
OBJECT_ID      = 1982-013B
CENTER_NAME    = EARTH
REF_FRAME      = TEME
TIME_SYSTEM    = UTC
MEAN_ELEMENT_THEORY = SGP/SGP4

EPOCH          = 2025-12-27T04:20:27.594816
MEAN_MOTION    = 15.21211944
ECCENTRICITY   = .00240826
INCLINATION    = 81.1738
RA_OF_ASC_NODE = 245.7056
ARG_OF_PERICENTER = 64.7379
MEAN_ANOMALY   = 295.6344

EPHEMERIS_TYPE = 0
CLASSIFICATION_TYPE = U
NORAD_CAT_ID   = 13068
ELEMENT_SET_NO = 999
REV_AT_EPOCH   = 39332
BSTAR          = .22802713E-3
MEAN_MOTION_DOT = .5152E-4
MEAN_MOTION_DDOT = 0

CCSDS_OMM_VERS = 2.0
CREATION_DATE  = 
ORIGINATOR     = 

OBJECT_NAME    = SL-3 R/B
OBJECT_ID      = 1982-039B
CENTER_NAME    = EARTH
REF_FRAME      = TEME
TIME_SYSTEM    = UTC
MEAN_ELEMENT_THEORY = SGP/SGP4

EPOCH          = 2025-12-27T05:19:35.959872
MEAN_MOTION    = 15.09609174
ECCENTRICITY   = .00294317
INCLINATION    = 81.1706
RA_OF_ASC_NODE = 299.4352
ARG_OF_PERICENTER = 203.0254
MEAN_ANOMALY   = 156.9655

EPHEMERIS_TYPE = 0
CLASSIFICATION_TYPE = U
NORAD_CAT_ID   = 13154
ELEMENT_SET_NO = 999
REV_AT_EPOCH   = 37070
BSTAR          = .20817155E-3
MEAN_MOTION_DOT = .3402E-4
MEAN_MOTION_DDOT = 0

