ATLAS CENTAUR R/B       
1 06155U 72065B   25361.32427176  .00001407  00000+0  19587-3 0  9990
2 06155  35.0024   9.7634 0033304 122.1024 238.2916 14.77447064830553
SL-8 R/B                
1 08459U 75112B   25361.16030488  .00000357  00000+0  12611-3 0  9997
2 08459  74.0597 152.3330 0016701 262.2649  97.6608 14.38155136621443
SL-3 R/B                
1 10114U 77057B   25361.21672671  .00013608  00000+0  30731-3 0  9996
2 10114  97.5693 165.1124 0007457 175.6840 184.4473 15.43298831657140
SEASAT 1                
1 10967U 78064A   25361.20936686  .00000464  00000+0  16843-3 0  9993
2 10967 108.0141 333.3925 0001287 257.1519 102.9483 14.46077021496037
SL-14 R/B               
1 11267U 79011B   25361.20931535  .00000768  00000+0  73611-4 0  9992
2 11267  82.5236 165.3207 0014798 302.7550  57.2243 14.91787925517975
SL-8 R/B                
1 11574U 79089B   25361.05556888  .00000278  00000+0  92127-4 0  9994
2 11574  74.0672 225.4836 0014773  53.9638 306.2885 14.42292560425639
SL-14 R/B               
1 11672U 80005B   25361.10767688  .00000710  00000+0  69427-4 0  9999
2 11672  82.5138  16.0713 0016990  49.6047 310.6651 14.90808655465675
SL-8 R/B                
1 12139U 81003B   25361.27676865  .00021249  00000+0  56204-3 0  9999
2 12139  82.9355 356.8267 0277325  70.3516 292.7413 15.07490911303758
SL-3 R/B                
1 12465U 81046B   25361.18631648  .00012490  00000+0  31141-3 0  9999
2 12465  81.2325  16.6510 0018055 271.3494  88.5680 15.39910123427269
SL-3 R/B                
1 12904U 81103B   25361.27126898  .00006344  00000+0  28939-3 0  9999
2 12904  81.1597 298.3340 0012939 162.0022 198.1670 15.20405099962223
SL-3 R/B                
1 13068U 82013B   25361.18087494  .00005152  00000+0  22803-3 0  9990
2 13068  81.1738 245.7056 0024082  64.7379 295.6344 15.21211944393322
SL-3 R/B                
1 13154U 82039B   25361.22194398  .00003402  00000+0  20817-3 0  9990
2 13154  81.1706 299.4352 0029431 203.0254 156.9655 15.09609174370704
